NORAD_CAT_ID,OBJECT_NAME,OBJECT_TYPE,EPOCH,MEAN_MOTION,ECCENTRICITY,INCLINATION,RA_OF_ASC_NODE,ARG_OF_PERICENTER,MEAN_ANOMALY,BSTAR,MEAN_MOTION_DOT,MEAN_MOTION_DDOT,TLE_LINE0,TLE_LINE1,TLE_LINE2,SEMIMAJOR_AXIS,PERIOD,APOGEE,PERIGEE,DECAYED
52850.0,STARLINK-4187,PAYLOAD,2022-10-10 16:00:00,15.08804889,0.0001375,53.2181,227.7239,57.0856,257.9446,0.0032747,0.00052164,0.0,0 STARLINK-4187,1 52850U 22062W   22283.66667824  .00052164  00000-0  32747-2 0  9997,2 52850  53.2181 227.7239 0001375  57.0856 257.9446 15.08804889 18176,6917.988,95.44,540.804,538.901,0.0
52850.0,STARLINK-4187,PAYLOAD,2022-10-10 22:00:01,15.08912858,0.0001363,53.218,226.6028,57.5855,176.1687,-0.014588,-0.00225712,0.0,0 STARLINK-4187,1 52850U 22062W   22283.91668981 -.00225712  00000-0 -14588-1 0  9995,2 52850  53.2180 226.6028 0001363  57.5855 176.1687 15.08912858  1302,6917.658,95.433,540.466,538.58,0.0
52850.0,STARLINK-4187,PAYLOAD,2022-10-11 06:00:00,15.08791974,0.0001605,53.2179,225.1072,53.1652,192.1143,0.0022301,0.00035336,0.0,0 STARLINK-4187,1 52850U 22062W   22284.25001157  .00035336  00000-0  22301-2 0  9991,2 52850  53.2179 225.1072 0001605  53.1652 192.1143 15.08791974 18261,6918.026999999999,95.441,541.003,538.7819999999998,0.0
52850.0,STARLINK-4187,PAYLOAD,2022-10-11 14:00:01,15.08755586,0.0001196,53.2177,223.6123,56.8637,199.9959,0.0079753999999999,0.0012867,0.0,0 STARLINK-4187,1 52850U 22062W   22284.58334491  .00128670  00000-0  79754-2 0  9995,2 52850  53.2177 223.6123 0001196  56.8637 199.9959 15.08755586  1303,6918.138000000001,95.443,540.831,539.1759999999998,0.0
52850.0,STARLINK-4187,PAYLOAD,2022-10-11 22:00:00,15.0883677,0.0001139999999999,53.2177,222.1169,58.7612,209.6485,2.7342e-05,1.47e-06,0.0,0 STARLINK-4187,1 52850U 22062W   22284.91667824  .00000147  00000-0  27342-4 0  9997,2 52850  53.2177 222.1169 0001140  58.7612 209.6485 15.08836770  1308,6917.89,95.438,540.544,538.967,0.0
52850.0,STARLINK-4187,PAYLOAD,2022-10-12 06:00:00,15.08812847,0.0001511,53.2175,220.6186,53.4869,226.4996,0.0026304,0.00041792,0.0,0 STARLINK-4187,1 52850U 22062W   22285.25001157  .00041792  00000-0  26304-2 0  9992,2 52850  53.2175 220.6186 0001511  53.4869 226.4996 15.08812847 18419,6917.9630000000025,95.439,540.874,538.783,0.0
52850.0,STARLINK-4187,PAYLOAD,2022-10-12 14:00:01,15.08786234,0.0001450999999999,53.2175,219.1217,56.4441,235.1357,0.0072671,0.00117124,0.0,0 STARLINK-4187,1 52850U 22062W   22285.58334491  .00117124  00000-0  72671-2 0  9999,2 52850  53.2175 219.1217 0001451  56.4441 235.1357 15.08786234  1307,6918.045,95.441,540.914,538.906,0.0
52850.0,STARLINK-4187,PAYLOAD,2022-10-12 22:00:00,15.08909836,0.0001515,53.2175,217.6266,54.4841,248.6641,-0.0069302999999999,-0.00109125,0.0,0 STARLINK-4187,1 52850U 22062W   22285.91667824 -.00109125  00000-0 -69303-2 0  9997,2 52850  53.2175 217.6266 0001515  54.4841 248.6641 15.08909836 18518,6917.667,95.433,540.58,538.484,0.0
52850.0,STARLINK-4187,PAYLOAD,2022-10-13 14:00:01,15.08922966,0.0001399,53.2177,214.6342,57.6906,268.6284,-0.0075048,-0.00118042,0.0,0 STARLINK-4187,1 52850U 22062W   22286.58334491 -.00118042  00000-0 -75048-2 0  9993,2 52850  53.2177 214.6342 0001399  57.6906 268.6284 15.08922966  1302,6917.627,95.432,540.46,538.524,0.0
52850.0,STARLINK-4187,PAYLOAD,2022-10-13 20:00:01,15.08836374,0.0001405,53.2175,213.5122,62.3014,182.827,8.285100000000001e-05,1.031e-05,0.0,0 STARLINK-4187,1 52850U 22062W   22286.83335648  .00001031  00000-0  82851-4 0  9995,2 52850  53.2175 213.5122 0001405  62.3014 182.8270 15.08836374 18650,6917.891,95.438,540.7280000000002,538.785,0.0
52850.0,STARLINK-4187,PAYLOAD,2022-10-13 22:00:00,15.088371900000002,0.0001403,53.2176,213.1387,60.1298,277.8332,-2.6704e-05,-7.13e-06,0.0,0 STARLINK-4187,1 52850U 22062W   22286.91667824 -.00000713  00000-0 -26704-4 0  9991,2 52850  53.2176 213.1387 0001403  60.1298 277.8332 15.08837190  1303,6917.889,95.438,540.725,538.783,0.0
52850.0,STARLINK-4187,PAYLOAD,2022-10-14 14:00:01,15.0882272,0.0001351,53.2176,210.1451,63.0556,298.1004,0.0013055,0.0002054,0.0,0 STARLINK-4187,1 52850U 22062W   22287.58334491  .00020540  00000-0  13055-2 0  9997,2 52850  53.2176 210.1451 0001351  63.0556 298.1004 15.08822720  1319,6917.933000000001,95.439,540.7330000000002,538.864,0.0
52850.0,STARLINK-4187,PAYLOAD,2022-10-14 22:00:00,15.08815752,0.0001526,53.2171,208.6476,61.8796,310.8444,0.0041284,0.00065987,0.0,0 STARLINK-4187,1 52850U 22062W   22287.91667824  .00065987  00000-0  41284-2 0  9992,2 52850  53.2171 208.6476 0001526  61.8796 310.8444 15.08815752 18819,6917.955,95.439,540.875,538.764,0.0
52850.0,STARLINK-4187,PAYLOAD,2022-10-15 14:00:01,15.08822115,0.0001419,53.2171,205.6539,59.7017,336.2374,0.00092373,0.00014437,0.0,0 STARLINK-4187,1 52850U 22062W   22288.58334491  .00014437  00000-0  92373-3 0  9997,2 52850  53.2171 205.6539 0001419  59.7017 336.2374 15.08822115  1300,6917.935,95.439,540.7819999999998,538.818,0.0
52850.0,STARLINK-4187,PAYLOAD,2022-10-15 22:00:01,15.08840656,0.0001474,53.2168,204.1575,57.6935,349.8713,-0.00042308,-7.015e-05,0.0,0 STARLINK-4187,1 52850U 22062W   22288.91668981 -.00007015  00000-0 -42308-3 0  9997,2 52850  53.2168 204.1575 0001474  57.6935 349.8713 15.08840656  1304,6917.878000000002,95.438,540.763,538.724,0.0
52850.0,STARLINK-4187,PAYLOAD,2022-10-16 14:00:01,15.08806524,0.0001523,53.217,201.1641,60.1763,10.5151,0.0035321,0.00056323,0.0,0 STARLINK-4187,1 52850U 22062W   22289.58334491  .00056323  00000-0  35321-2 0  9997,2 52850  53.2170 201.1641 0001523  60.1763  10.5151 15.08806524 19067,6917.983,95.44,540.901,538.794,0.0
52850.0,STARLINK-4187,PAYLOAD,2022-10-16 22:00:00,15.08874378,0.0001595999999999,53.2174,199.6691,58.989,23.2748,-0.0035186999999999,-0.00055906,0.0,0 STARLINK-4187,1 52850U 22062W   22289.91667824 -.00055906  00000-0 -35187-2 0  9991,2 52850  53.2174 199.6691 0001596  58.9890  23.2748 15.08874378  1306,6917.775,95.435,540.744,538.536,0.0
52850.0,STARLINK-4187,PAYLOAD,2022-10-17 06:00:00,15.08824512,0.0001665999999999,53.2168,198.1735,51.753,42.1186,0.001713,0.00027068,0.0,0 STARLINK-4187,1 52850U 22062W   22290.25001157  .00027068  00000-0  17130-2 0  9995,2 52850  53.2168 198.1735 0001666  51.7530  42.1186 15.08824512 19166,6917.928000000001,95.439,540.945,538.64,0.0
52850.0,STARLINK-4187,PAYLOAD,2022-10-17 14:00:01,15.08809024,0.0001518,53.2172,196.6753,61.5661,43.9155,0.0030078,0.00047866,0.0,0 STARLINK-4187,1 52850U 22062W   22290.58334491  .00047866  00000-0  30078-2 0  9995,2 52850  53.2172 196.6753 0001518  61.5661  43.9155 15.08809024  1307,6917.975,95.44,540.89,538.79,0.0
52850.0,STARLINK-4187,PAYLOAD,2022-10-17 22:00:00,15.0886895,0.0001639,53.2176,195.1802,60.2656,56.7956,-0.0025775999999999,-0.00041109,0.0,0 STARLINK-4187,1 52850U 22062W   22290.91667824 -.00041109  00000-0 -25776-2 0  9996,2 52850  53.2176 195.1802 0001639  60.2656  56.7956 15.08868950  1308,6917.792,95.436,540.7909999999998,538.523,0.0
52850.0,STARLINK-4187,PAYLOAD,2022-10-18 08:00:01,15.08855198,0.0001698,53.217,193.3094,56.2567,165.2819,-0.0036439999999999,-0.00057841,0.0,0 STARLINK-4187,1 52850U 22062W   22291.33334491 -.00057841  00000-0 -36440-2 0  9994,2 52850  53.2170 193.3094 0001698  56.2567 165.2819 15.08855198 19332,6917.834,95.437,540.874,538.524,0.0
52850.0,STARLINK-4187,PAYLOAD,2022-10-18 14:00:01,15.08792509,0.0001615,53.2171,192.1861,63.5002,76.7442,0.003436,0.0005474999999999,0.0,0 STARLINK-4187,1 52850U 22062W   22291.58334491  .00054750  00000-0  34360-2 0  9994,2 52850  53.2171 192.1861 0001615  63.5002  76.7442 15.08792509  1308,6918.026,95.441,541.008,538.773,0.0
52850.0,STARLINK-4187,PAYLOAD,2022-10-18 22:00:00,15.0883849,0.0001737,53.2173,190.6909,61.4921,90.3099,-0.00090785,-0.00014707,0.0,0 STARLINK-4187,1 52850U 22062W   22291.91667824 -.00014707  00000-0 -90785-3 0  9994,2 52850  53.2173 190.6909 0001737  61.4921  90.3099 15.08838490 19420,6917.885,95.438,540.952,538.548,0.0
52850.0,STARLINK-4187,PAYLOAD,2022-10-19 14:00:01,15.08831388,0.000162,53.2169,187.6972,65.5271,109.4665,0.0030264,0.00048195,0.0,0 STARLINK-4187,1 52850U 22062W   22292.58334491  .00048195  00000-0  30264-2 0  9990,2 52850  53.2169 187.6972 0001620  65.5271 109.4665 15.08831388 19526,6917.906999999997,95.438,540.8919999999998,538.651,0.0
52850.0,STARLINK-4187,PAYLOAD,2022-10-19 22:00:00,15.08867929,0.0001669,53.2171,186.2022,62.3754,124.2235,-0.0028974,-0.0004614,0.0,0 STARLINK-4187,1 52850U 22062W   22292.91667824 -.00046140  00000-0 -28974-2 0  9991,2 52850  53.2171 186.2022 0001669  62.3754 124.2235 15.08867929  1309,6917.795,95.436,540.815,538.505,0.0
52850.0,STARLINK-4187,PAYLOAD,2022-10-20 08:00:01,15.08872518,0.0001583,53.2167,184.3316,58.6785,232.4147,-0.0045966,-0.00072769,0.0,0 STARLINK-4187,1 52850U 22062W   22293.33334491 -.00072769  00000-0 -45966-2 0  9995,2 52850  53.2167 184.3316 0001583  58.6785 232.4147 15.08872518 19635,6917.781,95.435,540.741,538.5509999999998,0.0
52850.0,STARLINK-4187,PAYLOAD,2022-10-20 14:00:01,15.08803588,0.0001467,53.2167,183.2083,65.2787,144.5316,0.0030737,0.00048921,0.0,0 STARLINK-4187,1 52850U 22062W   22293.58334491  .00048921  00000-0  30737-2 0  9993,2 52850  53.2167 183.2083 0001467  65.2787 144.5316 15.08803588  1308,6917.9919999999975,95.44,540.872,538.842,0.0
52850.0,STARLINK-4187,PAYLOAD,2022-10-20 22:00:00,15.08843188,0.0001585999999999,53.2171,181.71400000000003,60.7898,160.596,-0.00052888,-8.696e-05,0.0,0 STARLINK-4187,1 52850U 22062W   22293.91667824 -.00008696  00000-0 -52888-3 0  9998,2 52850  53.2171 181.7140 0001586  60.7898 160.5960 15.08843188  1308,6917.871,95.437,540.8330000000002,538.638,0.0
52850.0,STARLINK-4187,PAYLOAD,2022-10-21 14:00:01,15.08818963,0.0001457,53.2165,178.7193,64.5262,180.0591,0.0026165,0.00041575,0.0,0 STARLINK-4187,1 52850U 22062W   22294.58334491  .00041575  00000-0  26165-2 0  9992,2 52850  53.2165 178.7193 0001457  64.5262 180.0591 15.08818963  1309,6917.945,95.439,540.818,538.802,0.0
